0 COSMOS 2251 DEB
1 34675U 93036XV  13282.28433750  .00004500  00000-0  14565-2 0  4249
2 34675 074.0427 142.4734 0044891 238.2247 121.4531 14.38735093240758
0 COSMOS 2251 DEB
1 34675U 93036XV  13286.94304813  .00004337  00000-0  14032-2 0  4262
2 34675 074.0425 133.8866 0044757 228.5862 131.1442 14.38764218241427
0 COSMOS 2251 DEB
1 34675U 93036XV  13288.95946880  .00006281  00000-0  20269-2 0  4271
2 34675 074.0416 130.1693 0044696 224.5041 135.2520 14.38786009241718
0 COSMOS 2251 DEB
1 34675U 93036XV  13291.94927987  .00005321  00000-0  17178-2 0  4281
2 34675 074.0413 124.6573 0044551 218.2423 141.5569 14.38815392242143
0 COSMOS 2251 DEB
1 34675U 93036XV  13294.86950031  .00007023  00000-0  22629-2 0  4290
2 34675 074.0417 119.2729 0044424 212.2016 147.6425 14.38843179242569
